[{"OBJECT_NAME":"OBJECT L","OBJECT_ID":"2024-205L","EPOCH":"2026-03-07T03:22:40.585728","MEAN_MOTION":15.10822925,"ECCENTRICITY":0.00547724,"INCLINATION":97.4213,"RA_OF_ASC_NODE":140.2188,"ARG_OF_PERICENTER":346.2042,"MEAN_ANOMALY":13.7688,"EPHEMERIS_TYPE":0,"CLASSIFICATION_TYPE":"U","NORAD_CAT_ID":61904,"ELEMENT_SET_NO":999,"REV_AT_EPOCH":7282,"BSTAR":0.00079283043,"MEAN_MOTION_DOT":0.00013606,"MEAN_MOTION_DDOT":0},{"OBJECT_NAME":"STARLINK-35068","OBJECT_ID":"2025-194E","EPOCH":"2026-03-09T13:27:57.940992","MEAN_MOTION":15.05664701,"ECCENTRICITY":0.00024276,"INCLINATION":97.6012,"RA_OF_ASC_NODE":284.1953,"ARG_OF_PERICENTER":89.7528,"MEAN_ANOMALY":270.3977,"EPHEMERIS_TYPE":0,"CLASSIFICATION_TYPE":"U","NORAD_CAT_ID":65438,"ELEMENT_SET_NO":999,"REV_AT_EPOCH":2962,"BSTAR":0.00053260242,"MEAN_MOTION_DOT":7.636e-5,"MEAN_MOTION_DDOT":0}]
