2024-205L               
1 61904U 24205L   26066.14074752  .00013606  00000+0  79283-3 0  9990
2 61904  97.4213 140.2188 0054772 346.2042  13.7688 15.10822925 72825
STARLINK-35068          
1 65438U 25194E   26068.56108728  .00007636  00000+0  53260-3 0  9996
2 65438  97.6012 284.1953 0002427  89.7528 270.3977 15.05664701 29628
